start=new Date('2021-10-09T00:00:00.000Z').valueOf();
sats=[{"OBJECT_NAME":"STARLINK-2359","APOAPSIS":"547.707","NORAD_CAT_ID":"47899","REF_FRAME":"TEME","MEAN_MOTION_DOT":"0.00002235","ARG_OF_PERICENTER":"105.8615","PERIOD":"95.591","CLASSIFICATION_TYPE":"U","BSTAR":"0.00016884000000","ECCENTRICITY":"0.00007580","OBJECT_ID":"2021-021AR","ELEMENT_SET_NO":"999","TIME_SYSTEM":"UTC","MEAN_ANOMALY":"254.2457","EPHEMERIS_TYPE":"0","CENTER_NAME":"EARTH","SEMIMAJOR_AXIS":"6925.317","FILE":"3152020","MEAN_ELEMENT_THEORY":"SGP4","SITE":"AFETR","TLE_LINE2":"2 47899  53.0560 303.3179 0000758 105.8615 254.2457 15.06410358 33200","RCS_SIZE":"LARGE","PERIAPSIS":"546.657","TLE_LINE1":"1 47899U 21021AR  21281.54117448  .00002235  00000-0  16884-3 0  9993","COUNTRY_CODE":"US","RA_OF_ASC_NODE":"303.3179","MEAN_MOTION":"15.06410358","OBJECT_TYPE":"PAYLOAD","INCLINATION":"53.0560","GP_ID":"186596505","EPOCH":"2021-10-08T12:59:17.475072","DECAY_DATE":null,"MEAN_MOTION_DDOT":"0.0000000000000","REV_AT_EPOCH":"3320","LAUNCH_DATE":"2021-03-14"},{"COUNTRY_CODE":"US","RA_OF_ASC_NODE":"313.2119","MEAN_MOTION":"15.06400069","OBJECT_TYPE":"PAYLOAD","INCLINATION":"53.0562","GP_ID":"186595257","EPOCH":"2021-10-08T13:33:45.688032","DECAY_DATE":null,"MEAN_MOTION_DDOT":"0.0000000000000","REV_AT_EPOCH":"3306","LAUNCH_DATE":"2021-03-14","SEMIMAJOR_AXIS":"6925.348","MEAN_ELEMENT_THEORY":"SGP4","FILE":"3152020","SITE":"AFETR","TLE_LINE2":"2 47900  53.0562 313.2119 0000716 116.9960 243.1103 15.06400069 33066","RCS_SIZE":"LARGE","PERIAPSIS":"546.717","TLE_LINE1":"1 47900U 21021AS  21281.56511213 -.00000315  00000-0 -22521-5 0  9992","ELEMENT_SET_NO":"999","TIME_SYSTEM":"UTC","MEAN_ANOMALY":"243.1103","EPHEMERIS_TYPE":"0","CENTER_NAME":"EARTH","OBJECT_NAME":"STARLINK-2360","APOAPSIS":"547.709","REF_FRAME":"TEME","NORAD_CAT_ID":"47900","MEAN_MOTION_DOT":"-0.00000315","PERIOD":"95.592","ARG_OF_PERICENTER":"116.9960","CLASSIFICATION_TYPE":"U","BSTAR":"-0.00000225210000","ECCENTRICITY":"0.00007160","OBJECT_ID":"2021-021AS"},{"BSTAR":"0.00002230500000","ECCENTRICITY":"0.00009340","OBJECT_ID":"2021-021AT","CLASSIFICATION_TYPE":"U","MEAN_MOTION_DOT":"0.00000051","ARG_OF_PERICENTER":"84.7239","PERIOD":"95.592","OBJECT_NAME":"STARLINK-2361","APOAPSIS":"547.861","NORAD_CAT_ID":"47901","REF_FRAME":"TEME","EPHEMERIS_TYPE":"0","CENTER_NAME":"EARTH","MEAN_ANOMALY":"275.3856","ELEMENT_SET_NO":"999","TIME_SYSTEM":"UTC","TLE_LINE2":"2 47901  53.0511 302.2198 0000934  84.7239 275.3856 15.06399915 33226","SITE":"AFETR","PERIAPSIS":"546.567","RCS_SIZE":"LARGE","TLE_LINE1":"1 47901U 21021AT  21281.78718791  .00000051  00000-0  22305-4 0  9991","MEAN_ELEMENT_THEORY":"SGP4","FILE":"3152020","SEMIMAJOR_AXIS":"6925.349","MEAN_MOTION_DDOT":"0.0000000000000","REV_AT_EPOCH":"3322","LAUNCH_DATE":"2021-03-14","INCLINATION":"53.0511","GP_ID":"186595507","EPOCH":"2021-10-08T18:53:33.035424","DECAY_DATE":null,"OBJECT_TYPE":"PAYLOAD","COUNTRY_CODE":"US","RA_OF_ASC_NODE":"302.2198","MEAN_MOTION":"15.06399915"},{"SEMIMAJOR_AXIS":"6925.353","FILE":"3152020","MEAN_ELEMENT_THEORY":"SGP4","SITE":"AFETR","TLE_LINE2":"2 47902  53.0554 321.9442 0001147  82.3141 277.7978 15.06398395 33061","RCS_SIZE":"LARGE","PERIAPSIS":"546.424","TLE_LINE1":"1 47902U 21021AU  21281.84527117  .00001517  00000-0  12070-3 0  9994","COUNTRY_CODE":"US","RA_OF_ASC_NODE":"321.9442","MEAN_MOTION":"15.06398395","OBJECT_TYPE":"PAYLOAD","INCLINATION":"53.0554","GP_ID":"186596759","EPOCH":"2021-10-08T20:17:11.429088","DECAY_DATE":null,"MEAN_MOTION_DDOT":"0.0000000000000","REV_AT_EPOCH":"3306","LAUNCH_DATE":"2021-03-14","OBJECT_NAME":"STARLINK-2362","APOAPSIS":"548.013","REF_FRAME":"TEME","NORAD_CAT_ID":"47902","MEAN_MOTION_DOT":"0.00001517","PERIOD":"95.592","ARG_OF_PERICENTER":"82.3141","CLASSIFICATION_TYPE":"U","BSTAR":"0.00012070000000","ECCENTRICITY":"0.00011470","OBJECT_ID":"2021-021AU","ELEMENT_SET_NO":"999","TIME_SYSTEM":"UTC","MEAN_ANOMALY":"277.7978","EPHEMERIS_TYPE":"0","CENTER_NAME":"EARTH"},{"TLE_LINE1":"1 47903U 21021AV  21281.53748564  .00000332  00000-0  41128-4 0  9993","PERIAPSIS":"546.965","RCS_SIZE":"LARGE","SITE":"AFETR","TLE_LINE2":"2 47903  53.0574 303.3374 0000349  64.3236 295.7789 15.06402130 33535","FILE":"3152020","MEAN_ELEMENT_THEORY":"SGP4","SEMIMAJOR_AXIS":"6925.342","LAUNCH_DATE":"2021-03-14","REV_AT_EPOCH":"3353","MEAN_MOTION_DDOT":"0.0000000000000","DECAY_DATE":null,"EPOCH":"2021-10-08T12:53:58.759296","GP_ID":"186597006","INCLINATION":"53.0574","OBJECT_TYPE":"PAYLOAD","RA_OF_ASC_NODE":"303.3374","MEAN_MOTION":"15.06402130","COUNTRY_CODE":"US","OBJECT_ID":"2021-021AV","ECCENTRICITY":"0.00003490","BSTAR":"0.00004112800000","CLASSIFICATION_TYPE":"U","PERIOD":"95.592","ARG_OF_PERICENTER":"64.3236","MEAN_MOTION_DOT":"0.00000332","REF_FRAME":"TEME","NORAD_CAT_ID":"47903","APOAPSIS":"547.449","OBJECT_NAME":"STARLINK-2363","CENTER_NAME":"EARTH","EPHEMERIS_TYPE":"0","MEAN_ANOMALY":"295.7789","TIME_SYSTEM":"UTC","ELEMENT_SET_NO":"999"},{"MEAN_MOTION_DOT":"-0.00000681","PERIOD":"95.592","ARG_OF_PERICENTER":"90.7055","OBJECT_NAME":"STARLINK-2364","APOAPSIS":"547.862","REF_FRAME":"TEME","NORAD_CAT_ID":"47904","BSTAR":"-0.00002682300000","ECCENTRICITY":"0.00009320","OBJECT_ID":"2021-021AW","CLASSIFICATION_TYPE":"U","MEAN_ANOMALY":"269.4040","ELEMENT_SET_NO":"999","TIME_SYSTEM":"UTC","EPHEMERIS_TYPE":"0","CENTER_NAME":"EARTH","FILE":"3152020","MEAN_ELEMENT_THEORY":"SGP4","SEMIMAJOR_AXIS":"6925.351","SITE":"AFETR","TLE_LINE2":"2 47904  53.0553 302.1560 0000932  90.7055 269.4040 15.06399151 33218","RCS_SIZE":"LARGE","PERIAPSIS":"546.571","TLE_LINE1":"1 47904U 21021AW  21281.79918576 -.00000681  00000-0 -26823-4 0  9998","OBJECT_TYPE":"PAYLOAD","COUNTRY_CODE":"US","RA_OF_ASC_NODE":"302.1560","MEAN_MOTION":"15.06399151","MEAN_MOTION_DDOT":"0.0000000000000","REV_AT_EPOCH":"3321","LAUNCH_DATE":"2021-03-14","INCLINATION":"53.0553","GP_ID":"186595758","EPOCH":"2021-10-08T19:10:49.649664","DECAY_DATE":null},{"PERIOD":"95.592","ARG_OF_PERICENTER":"100.2661","MEAN_MOTION_DOT":"-0.00000275","NORAD_CAT_ID":"47905","REF_FRAME":"TEME","OBJECT_NAME":"STARLINK-2365","APOAPSIS":"547.721","OBJECT_ID":"2021-021AX","BSTAR":"0.00000039577000","ECCENTRICITY":"0.00007140","CLASSIFICATION_TYPE":"U","MEAN_ANOMALY":"259.8409","ELEMENT_SET_NO":"999","TIME_SYSTEM":"UTC","EPHEMERIS_TYPE":"0","CENTER_NAME":"EARTH","FILE":"3152020","MEAN_ELEMENT_THEORY":"SGP4","SEMIMAJOR_AXIS":"6925.362","RCS_SIZE":"LARGE","PERIAPSIS":"546.732","TLE_LINE1":"1 47905U 21021AX  21281.79551148 -.00000275  00000-0  39577-6 0  9997","TLE_LINE2":"2 47905  53.0558 302.1747 0000714 100.2661 259.8409 15.06395755 33341","SITE":"AFETR","OBJECT_TYPE":"PAYLOAD","RA_OF_ASC_NODE":"302.1747","MEAN_MOTION":"15.06395755","COUNTRY_CODE":"US","LAUNCH_DATE":"2021-03-14","MEAN_MOTION_DDOT":"0.0000000000000","REV_AT_EPOCH":"3334","EPOCH":"2021-10-08T19:05:32.191872","DECAY_DATE":null,"INCLINATION":"53.0558","GP_ID":"186596008"},{"OBJECT_ID":"2021-021AY","BSTAR":"0.00001709600000","ECCENTRICITY":"0.00059150","CLASSIFICATION_TYPE":"U","ARG_OF_PERICENTER":"306.3706","PERIOD":"91.630","MEAN_MOTION_DOT":"0.00001625","NORAD_CAT_ID":"47906","REF_FRAME":"TEME","OBJECT_NAME":"STARLINK-2366","APOAPSIS":"358.509","EPHEMERIS_TYPE":"0","CENTER_NAME":"EARTH","MEAN_ANOMALY":"53.6765","ELEMENT_SET_NO":"999","TIME_SYSTEM":"UTC","PERIAPSIS":"350.545","RCS_SIZE":"LARGE","TLE_LINE1":"1 47906U 21021AY  21281.59919648  .00001625  00000-0  17096-4 0  9998","TLE_LINE2":"2 47906  53.0508 269.2262 0005915 306.3706  53.6765 15.71529558 33784","SITE":"AFETR","FILE":"3152020","MEAN_ELEMENT_THEORY":"SGP4","SEMIMAJOR_AXIS":"6732.662","LAUNCH_DATE":"2021-03-14","MEAN_MOTION_DDOT":"0.0000000000000","REV_AT_EPOCH":"3378","EPOCH":"2021-10-08T14:22:50.575872","DECAY_DATE":null,"INCLINATION":"53.0508","GP_ID":"186596259","OBJECT_TYPE":"PAYLOAD","RA_OF_ASC_NODE":"269.2262","MEAN_MOTION":"15.71529558","COUNTRY_CODE":"US"},{"CLASSIFICATION_TYPE":"U","OBJECT_ID":"2021-021AZ","BSTAR":"0.00002605500000","ECCENTRICITY":"0.00010610","NORAD_CAT_ID":"47907","REF_FRAME":"TEME","OBJECT_NAME":"STARLINK-2367","APOAPSIS":"547.981","PERIOD":"95.593","ARG_OF_PERICENTER":"88.7083","MEAN_MOTION_DOT":"0.00000107","EPHEMERIS_TYPE":"0","CENTER_NAME":"EARTH","ELEMENT_SET_NO":"999","TIME_SYSTEM":"UTC","MEAN_ANOMALY":"271.4027","RCS_SIZE":"LARGE","PERIAPSIS":"546.511","TLE_LINE1":"1 47907U 21021AZ  21281.80472307  .00000107  00000-0  26055-4 0  9998","TLE_LINE2":"2 47907  53.0570 322.1346 0001061  88.7083 271.4027 15.06389396 32910","SITE":"AFETR","SEMIMAJOR_AXIS":"6925.381","FILE":"3152020","MEAN_ELEMENT_THEORY":"SGP4","EPOCH":"2021-10-08T19:18:48.073248","DECAY_DATE":null,"INCLINATION":"53.0570","GP_ID":"186596506","LAUNCH_DATE":"2021-03-14","MEAN_MOTION_DDOT":"0.0000000000000","REV_AT_EPOCH":"3291","RA_OF_ASC_NODE":"322.1346","MEAN_MOTION":"15.06389396","COUNTRY_CODE":"US","OBJECT_TYPE":"PAYLOAD"},{"EPHEMERIS_TYPE":"0","CENTER_NAME":"EARTH","MEAN_ANOMALY":"262.8639","ELEMENT_SET_NO":"999","TIME_SYSTEM":"UTC","OBJECT_ID":"2021-021BA","BSTAR":"0.00002754900000","ECCENTRICITY":"0.00010150","CLASSIFICATION_TYPE":"U","PERIOD":"95.593","ARG_OF_PERICENTER":"97.2465","MEAN_MOTION_DOT":"0.00000129","NORAD_CAT_ID":"47908","REF_FRAME":"TEME","OBJECT_NAME":"STARLINK-2368","APOAPSIS":"547.936","LAUNCH_DATE":"2021-03-14","MEAN_MOTION_DDOT":"0.0000000000000","REV_AT_EPOCH":"3294","EPOCH":"2021-10-08T19:29:25.655136","DECAY_DATE":null,"INCLINATION":"53.0568","GP_ID":"186595258","OBJECT_TYPE":"PAYLOAD","RA_OF_ASC_NODE":"322.0991","MEAN_MOTION":"15.06393659","COUNTRY_CODE":"US","PERIAPSIS":"546.530","RCS_SIZE":"LARGE","TLE_LINE1":"1 47908U 21021BA  21281.81210249  .00000129  00000-0  27549-4 0  9998","SITE":"AFETR","TLE_LINE2":"2 47908  53.0568 322.0991 0001015  97.2465 262.8639 15.06393659 32944","MEAN_ELEMENT_THEORY":"SGP4","FILE":"3152020","SEMIMAJOR_AXIS":"6925.368"}];
